OTTER                   
1 62623U 25009Q   26068.72300813  .00012198  00000+0  45151-3 0  9990
2 62623  97.4065 151.3812 0003573 310.7710  49.3219 15.27809545 63722
STARLINK-35787          
1 66978U 25288V   26068.25149283  .00024342  00000+0  89156-3 0  9993
2 66978  43.0028  25.6444 0001335 274.6201  85.4498 15.27565968 15226
